STARLINK-31632          
1 59326U 24057G   26068.39265222 -.00003432  00000+0 -11518-3 0  9998
2 59326  42.9986 199.9940 0001386 285.8027  74.2672 15.27596218109662
HERMES-3                
1 63835U 25052BR  26068.93751242  .00020316  00000+0  69958-3 0  9995
2 63835  97.3987 324.6131 0007993 112.9583 247.2502 15.30039785 54863
